STARLINK-31625          
1 59458U 24068D   26068.30920026 -.00002133  00000+0 -68042-4 0  9999
2 59458  43.0049  36.7415 0001459 268.0898  91.9787 15.27570468108464
FLOCK 4G-21             
1 62651U 25009AU  26068.19487675  .00013648  00000+0  49619-3 0  9998
2 62651  97.4032 151.1274 0000465 329.5782  30.5431 15.28381075 63677
